PCSAT (NO-44)           
1 26931U 01043C   17346.46783232 -.00000021  00000-0  23739-4 0  9997
2 26931  67.0514 351.1980 0005243 268.8147  91.2353 14.30486790845847
